{"type":"FeatureCollection","features":[{"type":"Feature","properties":{"poblacion":2576288,"dpa_despro":"PICHINCHA","dpa_provin":"17"},"geometry":{"type":"Polygon","coordinates":[[[-78.94769,0.20392],[-78.94973,0.20487],[-78.95146,0.20703],[-78.96376,0.21724],[-78.966,0.22316],[-78.97145,0.22002],[-78.9783,0.21178],[-78.98406,0.21633],[-78.99187,0.21198],[-78.99389,0.21677],[-78.9986,0.21779],[-79.00214,0.22333],[-79.00772,0.22423],[-79.01365,0.23146],[-79.01653,0.23776],[-79.01505,0.24266],[-79.01699,0.25242],[-79.01461,0.25961],[-79.01676,0.26445],[-79.01434,0.26891],[-79.01764,0.27699],[-79.02723,0.27966],[-79.03144,0.28303],[-79.02926,0.2875],[-79.03112,0.29253],[-79.04298,0.29465],[-79.04713,0.28982],[-79.05173,0.29348],[-79.05648,0.29357],[-79.05931,0.3072],[-79.06293,0.30573],[-79.06822,0.30908],[-79.07583,0.30663],[-79.08464,0.30009],[-79.09729,0.30193],[-79.09996,0.30527],[-79.11365,0.30531],[-79.11894,0.31052],[-79.1265,0.3142],[-79.13342,0.32087],[-79.14158,0.32161],[-79.14409,0.31857],[-79.14825,0.3163],[-79.14987,0.3163],[-79.15257,0.32173],[-79.16069,0.31756],[-79.17355,0.31506],[-79.17876,0.31242],[-79.19003,0.31795],[-79.20533,0.32228],[-79.21425,0.31946],[-79.21729,0.3249],[-79.22124,0.32139],[-79.23397,0.32665],[-79.2414,0.32029],[-79.2465,0.32296],[-79.25505,0.31966],[-79.26462,0.31801],[-79.26747,0.31787],[-79.27018,0.31864],[-79.27409,0.31448],[-79.27214,0.30888],[-79.27902,0.30924],[-79.27902,0.29231],[-79.28185,0.28558],[-79.29143,0.2822],[-79.29581,0.27285],[-79.29575,0.26772],[-79.30879,0.26073],[-79.31255,0.26271],[-79.319,0.25465],[-79.33057,0.25327],[-79.33377,0.24966],[-79.35164,0.24631],[-79.35984,0.24752],[-79.35968,0.24293],[-79.36301,0.23678],[-79.35333,0.22775],[-79.34727,0.21145],[-79.33829,0.21384],[-79.32863,0.20907],[-79.32031,0.19668],[-79.31457,0.19326],[-79.30448,0.17965],[-79.3041,0.17323],[-79.31395,0.15789],[-79.32491,0.1562],[-79.3273,0.14554],[-79.3316,0.13792],[-79.33006,0.128],[-79.33076,0.11864],[-79.33436,0.11105],[-79.3481,0.09665],[-79.34885,0.0911],[-79.35469,0.07602],[-79.35474,0.06742],[-79.3659,0.05657],[-79.36838,0.05126],[-79.36702,0.04345],[-79.37149,0.03281],[-79.36516,0.01864],[-79.36085,0.02017],[-79.35206,0.01777],[-79.34681,0.02319],[-79.34231,0.02395],[-79.34005,0.01936],[-79.32469,0.02354],[-79.31859,0.01532],[-79.31181,0.01422],[-79.30828,0.0192],[-79.30399,0.02072],[-79.30148,0.01907],[-79.29888,0.01895],[-79.29736,0.01748],[-79.29327,0.01724],[-79.28943,0.01633],[-79.28485,0.01813],[-79.28216,0.01452],[-79.26003,0.01145],[-79.25628,0.00804],[-79.24697,0.0072],[-79.2443,0.0114],[-79.23812,0.01061],[-79.23629,0.00546],[-79.23254,0.00397],[-79.22688,0.00645],[-79.22399,0.00224],[-79.21094,0.00236],[-79.20212,-0.00312],[-79.19946,-0.00252],[-79.19246,-0.01095],[-79.1854,-0.00936],[-79.18476,-0.01351],[-79.17808,-0.01248],[-79.17218,-0.01301],[-79.16769,-0.01491],[-79.16929,-0.0155],[-79.15992,-0.01542],[-79.15673,-0.01697],[-79.15047,-0.01322],[-79.13526,-0.0172],[-79.13195,-0.01614],[-79.11961,-0.01984],[-79.11458,-0.01891],[-79.10899,-0.02447],[-79.09761,-0.02657],[-79.09998,-0.03442],[-79.1049,-0.03809],[-79.12041,-0.04397],[-79.12777,-0.05064],[-79.13211,-0.05988],[-79.13356,-0.06666],[-79.14146,-0.07494],[-79.14347,-0.08207],[-79.14728,-0.0837],[-79.14871,-0.0908],[-79.14469,-0.09303],[-79.1411,-0.09028],[-79.13583,-0.09393],[-79.13355,-0.08929],[-79.12631,-0.09047],[-79.12356,-0.08522],[-79.11143,-0.08632],[-79.10575,-0.08864],[-79.10071,-0.08372],[-79.09861,-0.08883],[-79.08634,-0.09258],[-79.0835,-0.09012],[-79.07498,-0.09465],[-79.06009,-0.09568],[-79.05377,-0.10414],[-79.0457,-0.10169],[-79.04377,-0.1063],[-79.03785,-0.10566],[-79.03006,-0.114],[-79.01401,-0.11638],[-79.01293,-0.10989],[-79.00664,-0.11383],[-79.00482,-0.11005],[-78.99408,-0.11193],[-78.98771,-0.10976],[-78.98409,-0.11137],[-78.97283,-0.10823],[-78.96784,-0.10202],[-78.95574,-0.10818],[-78.95075,-0.11318],[-78.94605,-0.1105],[-78.93367,-0.11888],[-78.9221,-0.12017],[-78.91792,-0.11606],[-78.91398,-0.11716],[-78.90744,-0.10767],[-78.8943,-0.10893],[-78.89205,-0.10673],[-78.8861,-0.11021],[-78.88133,-0.11031],[-78.87715,-0.11632],[-78.8683,-0.11836],[-78.86167,-0.126],[-78.85923,-0.13354],[-78.84533,-0.13583],[-78.84017,-0.13399],[-78.83394,-0.14299],[-78.83583,-0.14782],[-78.8336,-0.16123],[-78.84124,-0.16292],[-78.84264,-0.16628],[-78.83252,-0.17495],[-78.82972,-0.17909],[-78.83378,-0.18314],[-78.83222,-0.18868],[-78.82221,-0.19601],[-78.81347,-0.20077],[-78.80997,-0.20439],[-78.80533,-0.20436],[-78.79474,-0.21375],[-78.78908,-0.21503],[-78.7838,-0.21203],[-78.77829,-0.22483],[-78.77166,-0.22749],[-78.76764,-0.23585],[-78.75898,-0.24116],[-78.75958,-0.2506],[-78.75276,-0.25733],[-78.75334,-0.26088],[-78.74922,-0.26706],[-78.74613,-0.27742],[-78.75323,-0.27742],[-78.756,-0.28248],[-78.77365,-0.2798],[-78.77272,-0.28698],[-78.77537,-0.29438],[-78.77392,-0.2984],[-78.78739,-0.30613],[-78.78755,-0.31465],[-78.79498,-0.31564],[-78.80711,-0.32473],[-78.80815,-0.33229],[-78.81716,-0.33454],[-78.81602,-0.33843],[-78.81966,-0.34556],[-78.82405,-0.34352],[-78.82883,-0.34542],[-78.83484,-0.34463],[-78.8454,-0.34834],[-78.85149,-0.3462],[-78.85655,-0.34939],[-78.86213,-0.34747],[-78.86562,-0.34283],[-78.86682,-0.33226],[-78.87543,-0.33045],[-78.88457,-0.33711],[-78.88944,-0.33675],[-78.89298,-0.33199],[-78.89945,-0.33585],[-78.91164,-0.33021],[-78.9287,-0.31409],[-78.94426,-0.31126],[-78.95047,-0.3128],[-78.95485,-0.31664],[-78.94802,-0.32799],[-78.94125,-0.33149],[-78.93382,-0.33636],[-78.92553,-0.33716],[-78.91482,-0.3464],[-78.91403,-0.35431],[-78.9081,-0.35787],[-78.90695,-0.36137],[-78.91625,-0.36815],[-78.91581,-0.37215],[-78.91094,-0.37495],[-78.90365,-0.38465],[-78.89965,-0.38549],[-78.89946,-0.39238],[-78.89654,-0.39432],[-78.89081,-0.40325],[-78.88909,-0.40863],[-78.88222,-0.41611],[-78.87553,-0.41426],[-78.87033,-0.42149],[-78.86891,-0.42959],[-78.86151,-0.43395],[-78.86379,-0.44046],[-78.86229,-0.44812],[-78.8587,-0.45309],[-78.85775,-0.46202],[-78.85502,-0.46684],[-78.8456,-0.47051],[-78.83844,-0.47779],[-78.83619,-0.49567],[-78.83297,-0.49949],[-78.8343,-0.50706],[-78.83424,-0.52103],[-78.82718,-0.52813],[-78.82145,-0.52932],[-78.81117,-0.53738],[-78.80329,-0.54035],[-78.7902,-0.54281],[-78.78584,-0.53987],[-78.77846,-0.53847],[-78.77073,-0.54529],[-78.76492,-0.54466],[-78.755,-0.54774],[-78.74781,-0.55396],[-78.73342,-0.55966],[-78.7305,-0.56772],[-78.73084,-0.57431],[-78.72833,-0.58898],[-78.73031,-0.59649],[-78.736,-0.60342],[-78.73506,-0.60773],[-78.73913,-0.62196],[-78.73404,-0.63041],[-78.7354,-0.63736],[-78.72037,-0.64923],[-78.71514,-0.66099],[-78.70952,-0.66276],[-78.70036,-0.65843],[-78.6911,-0.65944],[-78.68648,-0.65616],[-78.67171,-0.65186],[-78.66402,-0.6477],[-78.66092,-0.63917],[-78.65709,-0.63678],[-78.64812,-0.64281],[-78.6414,-0.63265],[-78.63912,-0.61934],[-78.6181,-0.60654],[-78.61762,-0.60168],[-78.61087,-0.5995],[-78.59973,-0.6078],[-78.58683,-0.61022],[-78.57941,-0.61787],[-78.57607,-0.61148],[-78.56855,-0.60978],[-78.55895,-0.61415],[-78.55647,-0.62589],[-78.55704,-0.63127],[-78.55136,-0.63383],[-78.54441,-0.63145],[-78.54041,-0.62471],[-78.53329,-0.62498],[-78.52609,-0.6303],[-78.51826,-0.62967],[-78.51625,-0.63458],[-78.50246,-0.63364],[-78.49131,-0.62629],[-78.49195,-0.63188],[-78.48779,-0.63679],[-78.48161,-0.63323],[-78.47901,-0.62751],[-78.48033,-0.62358],[-78.47499,-0.61422],[-78.47052,-0.61608],[-78.46445,-0.60973],[-78.45635,-0.60902],[-78.45762,-0.61596],[-78.45109,-0.6207],[-78.44175,-0.61229],[-78.437,-0.61199],[-78.4336,-0.6054],[-78.42696,-0.60336],[-78.42194,-0.60907],[-78.41628,-0.60763],[-78.41048,-0.61246],[-78.40771,-0.62012],[-78.39264,-0.62646],[-78.38882,-0.62648],[-78.38026,-0.63383],[-78.37503,-0.64],[-78.3679,-0.65677],[-78.36352,-0.66179],[-78.37119,-0.67265],[-78.37698,-0.67409],[-78.39345,-0.67559],[-78.39507,-0.67667],[-78.3689,-0.6736],[-78.36174,-0.67497],[-78.34942,-0.66617],[-78.34631,-0.66596],[-78.34148,-0.66013],[-78.33219,-0.65774],[-78.3266,-0.64202],[-78.32549,-0.63543],[-78.32124,-0.62809],[-78.32309,-0.61844],[-78.32663,-0.61364],[-78.32198,-0.60491],[-78.32059,-0.59061],[-78.32053,-0.58424],[-78.31788,-0.58117],[-78.3118,-0.58079],[-78.30822,-0.57749],[-78.30335,-0.58021],[-78.29723,-0.57664],[-78.28812,-0.57905],[-78.28492,-0.57411],[-78.28437,-0.56682],[-78.27924,-0.56229],[-78.27941,-0.5574],[-78.27516,-0.55289],[-78.27066,-0.53718],[-78.26705,-0.53375],[-78.26604,-0.52841],[-78.27065,-0.51483],[-78.2548,-0.4989],[-78.25087,-0.4871],[-78.25159,-0.47602],[-78.24703,-0.47052],[-78.24732,-0.46143],[-78.23936,-0.46089],[-78.23661,-0.45605],[-78.23531,-0.45028],[-78.23853,-0.43502],[-78.24297,-0.42834],[-78.24879,-0.42571],[-78.24875,-0.42185],[-78.25516,-0.40875],[-78.25388,-0.40474],[-78.2483,-0.4008],[-78.24339,-0.39068],[-78.24308,-0.38387],[-78.23325,-0.37919],[-78.22382,-0.36354],[-78.21581,-0.36197],[-78.21458,-0.35521],[-78.20676,-0.34471],[-78.20726,-0.34025],[-78.19963,-0.32957],[-78.19651,-0.32958],[-78.19106,-0.31873],[-78.19634,-0.30521],[-78.19198,-0.30414],[-78.19203,-0.29379],[-78.18783,-0.28652],[-78.19139,-0.28084],[-78.19154,-0.27505],[-78.18597,-0.26355],[-78.19076,-0.2563],[-78.18754,-0.25164],[-78.18948,-0.24063],[-78.18572,-0.23676],[-78.18761,-0.22345],[-78.18537,-0.21584],[-78.18763,-0.21172],[-78.19257,-0.2098],[-78.18988,-0.19763],[-78.18322,-0.19292],[-78.17424,-0.19487],[-78.16706,-0.18689],[-78.16223,-0.18684],[-78.1584,-0.18255],[-78.15518,-0.17274],[-78.14972,-0.17334],[-78.14358,-0.17115],[-78.14079,-0.16691],[-78.13195,-0.16748],[-78.13095,-0.17459],[-78.12476,-0.18093],[-78.11554,-0.17901],[-78.10651,-0.18208],[-78.10187,-0.19089],[-78.09833,-0.18989],[-78.09057,-0.18037],[-78.08795,-0.18741],[-78.0825,-0.18868],[-78.07978,-0.18351],[-78.0734,-0.18513],[-78.07037,-0.18304],[-78.07022,-0.17652],[-78.06223,-0.1751],[-78.06124,-0.16744],[-78.05424,-0.16135],[-78.05739,-0.14603],[-78.04905,-0.14411],[-78.04024,-0.1383],[-78.03352,-0.14079],[-78.02785,-0.13807],[-78.01889,-0.14104],[-78.00909,-0.12977],[-78.00258,-0.12733],[-77.99546,-0.11116],[-77.99075,-0.11062],[-77.98528,-0.11757],[-77.97745,-0.12167],[-77.97281,-0.12008],[-77.96782,-0.1131],[-77.96272,-0.10983],[-77.96159,-0.105],[-77.95489,-0.09505],[-77.94534,-0.09507],[-77.93576,-0.09991],[-77.93097,-0.09032],[-77.93274,-0.0858],[-77.938,-0.08508],[-77.93845,-0.07865],[-77.93467,-0.07108],[-77.93852,-0.05793],[-77.94339,-0.05305],[-77.93717,-0.04811],[-77.93536,-0.04236],[-77.92224,-0.03027],[-77.91323,-0.02722],[-77.90829,-0.0277],[-77.88013,-0.0143],[-77.87326,-0.01288],[-77.87018,-0.00832],[-77.86337,-0.00544],[-77.85255,-0.00388],[-77.84451,0.00493],[-77.84429,0.0216],[-77.83983,0.02727],[-77.85447,0.0243],[-77.85781,0.03293],[-77.85887,0.04684],[-77.85714,0.05323],[-77.85831,0.059],[-77.86852,0.0679],[-77.87541,0.06993],[-77.87916,0.0755],[-77.88378,0.07581],[-77.88818,0.08161],[-77.89468,0.08453],[-77.90244,0.08427],[-77.91824,0.08176],[-77.92913,0.09369],[-77.92987,0.09693],[-77.93673,0.10385],[-77.94591,0.09929],[-77.95357,0.1084],[-77.96226,0.11285],[-77.9652,0.11075],[-77.97725,0.11096],[-77.97481,0.11679],[-77.97529,0.12769],[-77.97103,0.13587],[-77.9723,0.1403],[-77.97062,0.14681],[-77.96501,0.15185],[-77.9652,0.1579],[-77.96724,0.16874],[-77.97933,0.16988],[-77.98475,0.17383],[-77.99093,0.1721],[-78.00189,0.17204],[-78.0079,0.17474],[-78.01078,0.17866],[-78.0185,0.182],[-78.02397,0.1878],[-78.03138,0.18825],[-78.03213,0.18233],[-78.03787,0.18294],[-78.04531,0.19084],[-78.0526,0.19311],[-78.05771,0.18903],[-78.07855,0.18911],[-78.07979,0.18659],[-78.08931,0.18502],[-78.09233,0.18633],[-78.09629,0.17905],[-78.09701,0.17349],[-78.10774,0.15849],[-78.11816,0.15535],[-78.12283,0.15566],[-78.1341,0.1527],[-78.14732,0.15719],[-78.14836,0.1588],[-78.14634,0.14923],[-78.15552,0.14113],[-78.16428,0.14184],[-78.16953,0.13863],[-78.18556,0.13409],[-78.19611,0.13488],[-78.20164,0.12787],[-78.20593,0.1286],[-78.2177,0.12583],[-78.22424,0.12921],[-78.22831,0.12792],[-78.22896,0.12207],[-78.23591,0.1238],[-78.24256,0.12265],[-78.25506,0.1303],[-78.25868,0.13554],[-78.26682,0.13777],[-78.2769,0.13539],[-78.28291,0.12868],[-78.28995,0.13467],[-78.28977,0.14072],[-78.28515,0.15117],[-78.29727,0.1547],[-78.30104,0.15449],[-78.2994,0.16039],[-78.30129,0.16546],[-78.30005,0.1726],[-78.30527,0.17666],[-78.30693,0.18299],[-78.31448,0.18702],[-78.32119,0.18775],[-78.32348,0.19036],[-78.33068,0.19142],[-78.33295,0.20213],[-78.33933,0.20386],[-78.33993,0.19798],[-78.34323,0.19142],[-78.34891,0.18502],[-78.35498,0.17486],[-78.3622,0.16714],[-78.36844,0.16275],[-78.37498,0.16087],[-78.37583,0.16734],[-78.37018,0.17565],[-78.36653,0.17833],[-78.36522,0.18625],[-78.36069,0.19263],[-78.35816,0.20259],[-78.36344,0.20892],[-78.35682,0.2172],[-78.35091,0.21044],[-78.34562,0.21998],[-78.34388,0.23027],[-78.35398,0.23047],[-78.35317,0.23611],[-78.3563,0.24365],[-78.36302,0.24847],[-78.36912,0.25067],[-78.37653,0.25656],[-78.38113,0.25656],[-78.38588,0.24771],[-78.39387,0.24404],[-78.39213,0.23808],[-78.39701,0.23752],[-78.40236,0.24067],[-78.41007,0.22636],[-78.41088,0.21708],[-78.41575,0.21669],[-78.42303,0.20948],[-78.4245,0.20567],[-78.43258,0.1961],[-78.43629,0.20163],[-78.4456,0.20928],[-78.44986,0.21961],[-78.45416,0.23413],[-78.45239,0.23643],[-78.45727,0.2445],[-78.46352,0.24954],[-78.46635,0.25968],[-78.47522,0.2661],[-78.47852,0.265],[-78.48838,0.26805],[-78.4969,0.27731],[-78.49449,0.25953],[-78.51016,0.24383],[-78.51016,0.22657],[-78.51928,0.22801],[-78.51943,0.22037],[-78.52415,0.21336],[-78.53029,0.2125],[-78.53586,0.20657],[-78.54437,0.20674],[-78.54967,0.20487],[-78.55301,0.20727],[-78.56218,0.20787],[-78.56553,0.22169],[-78.57561,0.22529],[-78.58377,0.225],[-78.5885,0.22297],[-78.60103,0.22246],[-78.60571,0.21675],[-78.61221,0.21967],[-78.62091,0.21609],[-78.62499,0.21804],[-78.63545,0.20737],[-78.63832,0.20648],[-78.64769,0.2102],[-78.64954,0.21481],[-78.65716,0.21644],[-78.66164,0.21373],[-78.66617,0.21506],[-78.67474,0.21048],[-78.68245,0.21631],[-78.68498,0.22168],[-78.68861,0.22301],[-78.69825,0.22121],[-78.70077,0.21707],[-78.71844,0.21962],[-78.73503,0.22675],[-78.74338,0.23456],[-78.74984,0.23466],[-78.75387,0.24013],[-78.76488,0.23811],[-78.76818,0.24175],[-78.77703,0.24335],[-78.78018,0.24053],[-78.79494,0.23703],[-78.80286,0.23203],[-78.81115,0.23053],[-78.82122,0.23362],[-78.8336,0.24146],[-78.84971,0.23765],[-78.85595,0.23763],[-78.86356,0.23254],[-78.8695,0.23381],[-78.87655,0.22934],[-78.8808,0.22229],[-78.89252,0.22058],[-78.89479,0.21782],[-78.90933,0.21337],[-78.91787,0.21438],[-78.92261,0.22118],[-78.9287,0.21894],[-78.93088,0.21386],[-78.93614,0.21225],[-78.94059,0.20579],[-78.94769,0.20392]],[[-78.93492,0.10678],[-78.93711,0.10515],[-78.93521,0.10762],[-78.93492,0.10678]],[[-79.14335,0.03413],[-79.13925,0.04024],[-79.13925,0.03257],[-79.14335,0.03413]]]}}]}